BLUEBON                 
1 62688U 25009CH  26068.70316231  .00010452  00000+0  37313-3 0  9992
2 62688  97.4017 152.2033 0001193  43.3900 316.7434 15.29047253 63767
STARLINK-36086          
1 66980U 25288X   26068.22721632  .00016064  00000+0  59202-3 0  9998
2 66980  43.0008  26.3238 0001555 251.6400 108.4283 15.27578563 15218
